<?xml version="1.0" encoding="UTF-8"?>
<ndm xmlns:xsi="http://www.w3.org/2001/XMLSchema-instance" xsi:noNamespaceSchemaLocation="https://sanaregistry.org/r/ndmxml_unqualified/ndmxml-2.0.0-master-2.0.xsd">
<omm id="CCSDS_OMM_VERS" version="2.0">
<header><CREATION_DATE/><ORIGINATOR/></header><body><segment><metadata><OBJECT_NAME>KUIPER-00008</OBJECT_NAME><OBJECT_ID>2025-088A</OBJECT_ID><CENTER_NAME>EARTH</CENTER_NAME><REF_FRAME>TEME</REF_FRAME><TIME_SYSTEM>UTC</TIME_SYSTEM><MEAN_ELEMENT_THEORY>SGP4</MEAN_ELEMENT_THEORY></metadata><data><meanElements><EPOCH>2025-12-01T21:56:59.775936</EPOCH><MEAN_MOTION>14.99806169</MEAN_MOTION><ECCENTRICITY>.0010947</ECCENTRICITY><INCLINATION>51.8890</INCLINATION><RA_OF_ASC_NODE>172.6323</RA_OF_ASC_NODE><ARG_OF_PERICENTER>135.6010</ARG_OF_PERICENTER><MEAN_ANOMALY>224.5840</MEAN_ANOMALY></meanElements><tleParameters><EPHEMERIS_TYPE>0</EPHEMERIS_TYPE><CLASSIFICATION_TYPE>U</CLASSIFICATION_TYPE><NORAD_CAT_ID>63724</NORAD_CAT_ID><ELEMENT_SET_NO>999</ELEMENT_SET_NO><REV_AT_EPOCH>3339</REV_AT_EPOCH><BSTAR>-.18717E-3</BSTAR><MEAN_MOTION_DOT>-.2613E-4</MEAN_MOTION_DOT><MEAN_MOTION_DDOT>0</MEAN_MOTION_DDOT></tleParameters></data></segment></body></omm>
<omm id="CCSDS_OMM_VERS" version="2.0">
<header><CREATION_DATE/><ORIGINATOR/></header><body><segment><metadata><OBJECT_NAME>KUIPER-00009</OBJECT_NAME><OBJECT_ID>2025-088B</OBJECT_ID><CENTER_NAME>EARTH</CENTER_NAME><REF_FRAME>TEME</REF_FRAME><TIME_SYSTEM>UTC</TIME_SYSTEM><MEAN_ELEMENT_THEORY>SGP4</MEAN_ELEMENT_THEORY></metadata><data><meanElements><EPOCH>2025-12-02T04:00:03.998880</EPOCH><MEAN_MOTION>14.79997370</MEAN_MOTION><ECCENTRICITY>.0013012</ECCENTRICITY><INCLINATION>51.8996</INCLINATION><RA_OF_ASC_NODE>177.8622</RA_OF_ASC_NODE><ARG_OF_PERICENTER>129.3686</ARG_OF_PERICENTER><MEAN_ANOMALY>41.7223</MEAN_ANOMALY></meanElements><tleParameters><EPHEMERIS_TYPE>0</EPHEMERIS_TYPE><CLASSIFICATION_TYPE>U</CLASSIFICATION_TYPE><NORAD_CAT_ID>63725</NORAD_CAT_ID><ELEMENT_SET_NO>999</ELEMENT_SET_NO><REV_AT_EPOCH>417</REV_AT_EPOCH><BSTAR>-.32334E-2</BSTAR><MEAN_MOTION_DOT>-.24858E-3</MEAN_MOTION_DOT><MEAN_MOTION_DDOT>0</MEAN_MOTION_DDOT></tleParameters></data></segment></body></omm>
<omm id="CCSDS_OMM_VERS" version="2.0">
<header><CREATION_DATE/><ORIGINATOR/></header><body><segment><metadata><OBJECT_NAME>KUIPER-00010</OBJECT_NAME><OBJECT_ID>2025-088C</OBJECT_ID><CENTER_NAME>EARTH</CENTER_NAME><REF_FRAME>TEME</REF_FRAME><TIME_SYSTEM>UTC</TIME_SYSTEM><MEAN_ELEMENT_THEORY>SGP4</MEAN_ELEMENT_THEORY></metadata><data><meanElements><EPOCH>2025-12-01T17:10:56.282016</EPOCH><MEAN_MOTION>14.80324142</MEAN_MOTION><ECCENTRICITY>.0012297</ECCENTRICITY><INCLINATION>51.8993</INCLINATION><RA_OF_ASC_NODE>156.2601</RA_OF_ASC_NODE><ARG_OF_PERICENTER>172.6856</ARG_OF_PERICENTER><MEAN_ANOMALY>187.4288</MEAN_ANOMALY></meanElements><tleParameters><EPHEMERIS_TYPE>0</EPHEMERIS_TYPE><CLASSIFICATION_TYPE>U</CLASSIFICATION_TYPE><NORAD_CAT_ID>63726</NORAD_CAT_ID><ELEMENT_SET_NO>999</ELEMENT_SET_NO><REV_AT_EPOCH>3322</REV_AT_EPOCH><BSTAR>.23748E-3</BSTAR><MEAN_MOTION_DOT>.1605E-4</MEAN_MOTION_DOT><MEAN_MOTION_DDOT>0</MEAN_MOTION_DDOT></tleParameters></data></segment></body></omm>
<omm id="CCSDS_OMM_VERS" version="2.0">
<header><CREATION_DATE/><ORIGINATOR/></header><body><segment><metadata><OBJECT_NAME>KUIPER-00011</OBJECT_NAME><OBJECT_ID>2025-088D</OBJECT_ID><CENTER_NAME>EARTH</CENTER_NAME><REF_FRAME>TEME</REF_FRAME><TIME_SYSTEM>UTC</TIME_SYSTEM><MEAN_ELEMENT_THEORY>SGP4</MEAN_ELEMENT_THEORY></metadata><data><meanElements><EPOCH>2025-12-01T17:56:21.471072</EPOCH><MEAN_MOTION>14.79923874</MEAN_MOTION><ECCENTRICITY>.0015504</ECCENTRICITY><INCLINATION>51.8985</INCLINATION><RA_OF_ASC_NODE>163.7572</RA_OF_ASC_NODE><ARG_OF_PERICENTER>145.0900</ARG_OF_PERICENTER><MEAN_ANOMALY>215.1082</MEAN_ANOMALY></meanElements><tleParameters><EPHEMERIS_TYPE>0</EPHEMERIS_TYPE><CLASSIFICATION_TYPE>U</CLASSIFICATION_TYPE><NORAD_CAT_ID>63727</NORAD_CAT_ID><ELEMENT_SET_NO>999</ELEMENT_SET_NO><REV_AT_EPOCH>3325</REV_AT_EPOCH><BSTAR>-.12447E-3</BSTAR><MEAN_MOTION_DOT>-.1176E-4</MEAN_MOTION_DOT><MEAN_MOTION_DDOT>0</MEAN_MOTION_DDOT></tleParameters></data></segment></body></omm>
<omm id="CCSDS_OMM_VERS" version="2.0">
<header><CREATION_DATE/><ORIGINATOR/></header><body><segment><metadata><OBJECT_NAME>KUIPER-00012</OBJECT_NAME><OBJECT_ID>2025-088E</OBJECT_ID><CENTER_NAME>EARTH</CENTER_NAME><REF_FRAME>TEME</REF_FRAME><TIME_SYSTEM>UTC</TIME_SYSTEM><MEAN_ELEMENT_THEORY>SGP4</MEAN_ELEMENT_THEORY></metadata><data><meanElements><EPOCH>2025-12-01T18:14:52.576800</EPOCH><MEAN_MOTION>14.76784496</MEAN_MOTION><ECCENTRICITY>.0009328</ECCENTRICITY><INCLINATION>51.9013</INCLINATION><RA_OF_ASC_NODE>146.8385</RA_OF_ASC_NODE><ARG_OF_PERICENTER>155.8373</ARG_OF_PERICENTER><MEAN_ANOMALY>204.3027</MEAN_ANOMALY></meanElements><tleParameters><EPHEMERIS_TYPE>0</EPHEMERIS_TYPE><CLASSIFICATION_TYPE>U</CLASSIFICATION_TYPE><NORAD_CAT_ID>63728</NORAD_CAT_ID><ELEMENT_SET_NO>999</ELEMENT_SET_NO><REV_AT_EPOCH>3344</REV_AT_EPOCH><BSTAR>.18154E-3</BSTAR><MEAN_MOTION_DOT>.1068E-4</MEAN_MOTION_DOT><MEAN_MOTION_DDOT>0</MEAN_MOTION_DDOT></tleParameters></data></segment></body></omm>
<omm id="CCSDS_OMM_VERS" version="2.0">
<header><CREATION_DATE/><ORIGINATOR/></header><body><segment><metadata><OBJECT_NAME>KUIPER-00013</OBJECT_NAME><OBJECT_ID>2025-088F</OBJECT_ID><CENTER_NAME>EARTH</CENTER_NAME><REF_FRAME>TEME</REF_FRAME><TIME_SYSTEM>UTC</TIME_SYSTEM><MEAN_ELEMENT_THEORY>SGP4</MEAN_ELEMENT_THEORY></metadata><data><meanElements><EPOCH>2025-12-01T23:58:16.377024</EPOCH><MEAN_MOTION>14.79952523</MEAN_MOTION><ECCENTRICITY>.0008741</ECCENTRICITY><INCLINATION>51.8991</INCLINATION><RA_OF_ASC_NODE>180.0734</RA_OF_ASC_NODE><ARG_OF_PERICENTER>64.8802</ARG_OF_PERICENTER><MEAN_ANOMALY>295.3067</MEAN_ANOMALY></meanElements><tleParameters><EPHEMERIS_TYPE>0</EPHEMERIS_TYPE><CLASSIFICATION_TYPE>U</CLASSIFICATION_TYPE><NORAD_CAT_ID>63729</NORAD_CAT_ID><ELEMENT_SET_NO>999</ELEMENT_SET_NO><REV_AT_EPOCH>3310</REV_AT_EPOCH><BSTAR>.10246E-2</BSTAR><MEAN_MOTION_DOT>.7605E-4</MEAN_MOTION_DOT><MEAN_MOTION_DDOT>0</MEAN_MOTION_DDOT></tleParameters></data></segment></body></omm>
<omm id="CCSDS_OMM_VERS" version="2.0">
<header><CREATION_DATE/><ORIGINATOR/></header><body><segment><metadata><OBJECT_NAME>KUIPER-00014</OBJECT_NAME><OBJECT_ID>2025-088G</OBJECT_ID><CENTER_NAME>EARTH</CENTER_NAME><REF_FRAME>TEME</REF_FRAME><TIME_SYSTEM>UTC</TIME_SYSTEM><MEAN_ELEMENT_THEORY>SGP4</MEAN_ELEMENT_THEORY></metadata><data><meanElements><EPOCH>2025-12-01T20:41:17.048832</EPOCH><MEAN_MOTION>14.79942894</MEAN_MOTION><ECCENTRICITY>.0010124</ECCENTRICITY><INCLINATION>51.9007</INCLINATION><RA_OF_ASC_NODE>181.6483</RA_OF_ASC_NODE><ARG_OF_PERICENTER>123.3293</ARG_OF_PERICENTER><MEAN_ANOMALY>236.8640</MEAN_ANOMALY></meanElements><tleParameters><EPHEMERIS_TYPE>0</EPHEMERIS_TYPE><CLASSIFICATION_TYPE>U</CLASSIFICATION_TYPE><NORAD_CAT_ID>63730</NORAD_CAT_ID><ELEMENT_SET_NO>999</ELEMENT_SET_NO><REV_AT_EPOCH>3288</REV_AT_EPOCH><BSTAR>-.20205E-3</BSTAR><MEAN_MOTION_DOT>-.1766E-4</MEAN_MOTION_DOT><MEAN_MOTION_DDOT>0</MEAN_MOTION_DDOT></tleParameters></data></segment></body></omm>
<omm id="CCSDS_OMM_VERS" version="2.0">
<header><CREATION_DATE/><ORIGINATOR/></header><body><segment><metadata><OBJECT_NAME>KUIPER-00015</OBJECT_NAME><OBJECT_ID>2025-088H</OBJECT_ID><CENTER_NAME>EARTH</CENTER_NAME><REF_FRAME>TEME</REF_FRAME><TIME_SYSTEM>UTC</TIME_SYSTEM><MEAN_ELEMENT_THEORY>SGP4</MEAN_ELEMENT_THEORY></metadata><data><meanElements><EPOCH>2025-12-01T20:22:42.612384</EPOCH><MEAN_MOTION>14.81899941</MEAN_MOTION><ECCENTRICITY>.0011315</ECCENTRICITY><INCLINATION>51.8982</INCLINATION><RA_OF_ASC_NODE>192.8435</RA_OF_ASC_NODE><ARG_OF_PERICENTER>113.0442</ARG_OF_PERICENTER><MEAN_ANOMALY>247.1715</MEAN_ANOMALY></meanElements><tleParameters><EPHEMERIS_TYPE>0</EPHEMERIS_TYPE><CLASSIFICATION_TYPE>U</CLASSIFICATION_TYPE><NORAD_CAT_ID>63731</NORAD_CAT_ID><ELEMENT_SET_NO>999</ELEMENT_SET_NO><REV_AT_EPOCH>3318</REV_AT_EPOCH><BSTAR>.39041E-3</BSTAR><MEAN_MOTION_DOT>.2896E-4</MEAN_MOTION_DOT><MEAN_MOTION_DDOT>0</MEAN_MOTION_DDOT></tleParameters></data></segment></body></omm>

</ndm>
