KUIPER-00008            
1 63724U 25088A   25335.91458074 -.00002613  00000+0 -18717-3 0  9991
2 63724  51.8890 172.6323 0010947 135.6010 224.5840 14.99806169 33392
KUIPER-00009            
1 63725U 25088B   25336.16671295 -.00024858  00000+0 -32334-2 0  9997
2 63725  51.8996 177.8622 0013012 129.3686  41.7223 14.79997370  4175
KUIPER-00010            
1 63726U 25088C   25335.71592919  .00001605  00000+0  23748-3 0  9996
2 63726  51.8993 156.2601 0012297 172.6856 187.4288 14.80324142 33225
KUIPER-00011            
1 63727U 25088D   25335.74747073 -.00001176  00000+0 -12447-3 0  9992
2 63727  51.8985 163.7572 0015504 145.0900 215.1082 14.79923874 33254
KUIPER-00012            
1 63728U 25088E   25335.76033075  .00001068  00000+0  18154-3 0  9994
2 63728  51.9013 146.8385 0009328 155.8373 204.3027 14.76784496 33444
KUIPER-00013            
1 63729U 25088F   25335.99880066  .00007605  00000+0  10246-2 0  9996
2 63729  51.8991 180.0734 0008741  64.8802 295.3067 14.79952523 33109
KUIPER-00014            
1 63730U 25088G   25335.86200288 -.00001766  00000+0 -20205-3 0  9997
2 63730  51.9007 181.6483 0010124 123.3293 236.8640 14.79942894 32882
KUIPER-00015            
1 63731U 25088H   25335.84910431  .00002896  00000+0  39041-3 0  9995
2 63731  51.8982 192.8435 0011315 113.0442 247.1715 14.81899941 33189
